MALLIGYONG-1            
1 58400U 23179A   24235.60358559  .00010607  00000+0  46423-3 0  9991
2 58400  97.3928 121.3313 0001323  43.2908 316.8432 15.22224977 41829
